{"fetched_at":"2026-07-17T06:38:18.454Z","source":"https://celestrak.org/NORAD/elements/gp.php?NAME=HULIANWANG&FORMAT=JSON","constellation":"guowang","records":[{"OBJECT_NAME":"HULIANWANG DIGUI-140","OBJECT_ID":"2026-007D","EPOCH":"2026-07-16T15:37:51.077568","CLASSIFICATION_TYPE":"U","MEAN_MOTION":13.29326067,"ECCENTRICITY":0.0000873,"INCLINATION":50.0072,"RA_OF_ASC_NODE":340.3662,"ARG_OF_PERICENTER":121.7895,"MEAN_ANOMALY":238.3062,"EPHEMERIS_TYPE":0,"NORAD_CAT_ID":67438,"ELEMENT_SET_NO":999,"REV_AT_EPOCH":2470,"BSTAR":0.000018435,"MEAN_MOTION_DOT":-0.00000115,"MEAN_MOTION_DDOT":0},{"OBJECT_NAME":"HULIANWANG DIGUI-141","OBJECT_ID":"2026-007E","EPOCH":"2026-07-16T18:26:12.253632","CLASSIFICATION_TYPE":"U","MEAN_MOTION":13.29326896,"ECCENTRICITY":0.0000864,"INCLINATION":50.0067,"RA_OF_ASC_NODE":339.6429,"ARG_OF_PERICENTER":120.5623,"MEAN_ANOMALY":239.5334,"EPHEMERIS_TYPE":0,"NORAD_CAT_ID":67439,"ELEMENT_SET_NO":999,"REV_AT_EPOCH":2472,"BSTAR":0.00004857,"MEAN_MOTION_DOT":-0.00000102,"MEAN_MOTION_DDOT":0},{"OBJECT_NAME":"HULIANWANG DIGUI-142","OBJECT_ID":"2026-007F","EPOCH":"2026-07-16T18:14:13.238880","CLASSIFICATION_TYPE":"U","MEAN_MOTION":13.29326601,"ECCENTRICITY":0.0000886,"INCLINATION":50.014,"RA_OF_ASC_NODE":339.7156,"ARG_OF_PERICENTER":122.7416,"MEAN_ANOMALY":237.3541,"EPHEMERIS_TYPE":0,"NORAD_CAT_ID":67440,"ELEMENT_SET_NO":999,"REV_AT_EPOCH":2472,"BSTAR":0.000033521,"MEAN_MOTION_DOT":-0.00000109,"MEAN_MOTION_DDOT":0},{"OBJECT_NAME":"HULIANWANG DIGUI-143","OBJECT_ID":"2026-007G","EPOCH":"2026-07-16T18:02:15.456192","CLASSIFICATION_TYPE":"U","MEAN_MOTION":13.29324976,"ECCENTRICITY":0.0000728,"INCLINATION":50.0121,"RA_OF_ASC_NODE":339.6437,"ARG_OF_PERICENTER":123.7214,"MEAN_ANOMALY":236.3727,"EPHEMERIS_TYPE":0,"NORAD_CAT_ID":67441,"ELEMENT_SET_NO":999,"REV_AT_EPOCH":2472,"BSTAR":0.000025118,"MEAN_MOTION_DOT":-0.00000112,"MEAN_MOTION_DDOT":0},{"OBJECT_NAME":"HULIANWANG DIGUI-144","OBJECT_ID":"2026-007H","EPOCH":"2026-07-16T19:38:12.541344","CLASSIFICATION_TYPE":"U","MEAN_MOTION":13.29329358,"ECCENTRICITY":0.0000875,"INCLINATION":50.0107,"RA_OF_ASC_NODE":339.3141,"ARG_OF_PERICENTER":127.7556,"MEAN_ANOMALY":232.3396,"EPHEMERIS_TYPE":0,"NORAD_CAT_ID":67442,"ELEMENT_SET_NO":999,"REV_AT_EPOCH":2473,"BSTAR":0.000051672,"MEAN_MOTION_DOT":-0.000001,"MEAN_MOTION_DDOT":0},{"OBJECT_NAME":"HULIANWANG DIGUI-145","OBJECT_ID":"2026-007J","EPOCH":"2026-07-16T17:38:11.948928","CLASSIFICATION_TYPE":"U","MEAN_MOTION":13.29325874,"ECCENTRICITY":0.0000836,"INCLINATION":50.0111,"RA_OF_ASC_NODE":339.5468,"ARG_OF_PERICENTER":123.7429,"MEAN_ANOMALY":236.3523,"EPHEMERIS_TYPE":0,"NORAD_CAT_ID":67443,"ELEMENT_SET_NO":999,"REV_AT_EPOCH":2472,"BSTAR":0.00003666,"MEAN_MOTION_DOT":-0.00000107,"MEAN_MOTION_DDOT":0},{"OBJECT_NAME":"HULIANWANG DIGUI-146","OBJECT_ID":"2026-013A","EPOCH":"2026-07-16T13:17:56.148576","CLASSIFICATION_TYPE":"U","MEAN_MOTION":13.29325275,"ECCENTRICITY":0.0001341,"INCLINATION":50.0069,"RA_OF_ASC_NODE":250.5825,"ARG_OF_PERICENTER":222.9311,"MEAN_ANOMALY":137.1457,"EPHEMERIS_TYPE":0,"NORAD_CAT_ID":67522,"ELEMENT_SET_NO":999,"REV_AT_EPOCH":2395,"BSTAR":0.000070785,"MEAN_MOTION_DOT":-9.1e-7,"MEAN_MOTION_DDOT":0},{"OBJECT_NAME":"HULIANWANG DIGUI-147","OBJECT_ID":"2026-013B","EPOCH":"2026-07-16T13:05:41.760672","CLASSIFICATION_TYPE":"U","MEAN_MOTION":13.29328826,"ECCENTRICITY":0.0001253,"INCLINATION":50.0039,"RA_OF_ASC_NODE":250.4904,"ARG_OF_PERICENTER":223.313,"MEAN_ANOMALY":136.7644,"EPHEMERIS_TYPE":0,"NORAD_CAT_ID":67523,"ELEMENT_SET_NO":999,"REV_AT_EPOCH":2395,"BSTAR":0.00006303,"MEAN_MOTION_DOT":-9.5e-7,"MEAN_MOTION_DDOT":0},{"OBJECT_NAME":"HULIANWANG DIGUI-148","OBJECT_ID":"2026-013C","EPOCH":"2026-07-16T14:41:53.068128","CLASSIFICATION_TYPE":"U","MEAN_MOTION":13.29326799,"ECCENTRICITY":0.0001287,"INCLINATION":50.008,"RA_OF_ASC_NODE":250.2405,"ARG_OF_PERICENTER":223.3051,"MEAN_ANOMALY":136.7721,"EPHEMERIS_TYPE":0,"NORAD_CAT_ID":67524,"ELEMENT_SET_NO":999,"REV_AT_EPOCH":2396,"BSTAR":0.000079868,"MEAN_MOTION_DOT":-8.7e-7,"MEAN_MOTION_DDOT":0},{"OBJECT_NAME":"HULIANWANG DIGUI-149","OBJECT_ID":"2026-013D","EPOCH":"2026-07-16T12:41:47.638176","CLASSIFICATION_TYPE":"U","MEAN_MOTION":13.2933131,"ECCENTRICITY":0.0001512,"INCLINATION":50.0074,"RA_OF_ASC_NODE":250.4586,"ARG_OF_PERICENTER":225.6042,"MEAN_ANOMALY":134.4706,"EPHEMERIS_TYPE":0,"NORAD_CAT_ID":67525,"ELEMENT_SET_NO":999,"REV_AT_EPOCH":2395,"BSTAR":0.000013371,"MEAN_MOTION_DOT":-0.00000118,"MEAN_MOTION_DDOT":0},{"OBJECT_NAME":"HULIANWANG DIGUI-150","OBJECT_ID":"2026-013E","EPOCH":"2026-07-16T14:06:01.834272","CLASSIFICATION_TYPE":"U","MEAN_MOTION":13.29325518,"ECCENTRICITY":0.0001292,"INCLINATION":50.0047,"RA_OF_ASC_NODE":250.0436,"ARG_OF_PERICENTER":223.7494,"MEAN_ANOMALY":136.3276,"EPHEMERIS_TYPE":0,"NORAD_CAT_ID":67526,"ELEMENT_SET_NO":999,"REV_AT_EPOCH":2398,"BSTAR":-0.00001032,"MEAN_MOTION_DOT":-0.00000129,"MEAN_MOTION_DDOT":0},{"OBJECT_NAME":"HULIANWANG DIGUI-151","OBJECT_ID":"2026-013F","EPOCH":"2026-07-16T12:29:45.169152","CLASSIFICATION_TYPE":"U","MEAN_MOTION":13.29327402,"ECCENTRICITY":0.0001243,"INCLINATION":50.0081,"RA_OF_ASC_NODE":250.423,"ARG_OF_PERICENTER":226.0539,"MEAN_ANOMALY":134.0231,"EPHEMERIS_TYPE":0,"NORAD_CAT_ID":67527,"ELEMENT_SET_NO":999,"REV_AT_EPOCH":2395,"BSTAR":-0.000064868,"MEAN_MOTION_DOT":-0.00000154,"MEAN_MOTION_DDOT":0},{"OBJECT_NAME":"HULIANWANG DIGUI-152","OBJECT_ID":"2026-013G","EPOCH":"2026-07-16T12:05:36.732768","CLASSIFICATION_TYPE":"U","MEAN_MOTION":13.2933252,"ECCENTRICITY":0.0001262,"INCLINATION":50.0025,"RA_OF_ASC_NODE":250.2591,"ARG_OF_PERICENTER":225.9254,"MEAN_ANOMALY":134.1514,"EPHEMERIS_TYPE":0,"NORAD_CAT_ID":67528,"ELEMENT_SET_NO":999,"REV_AT_EPOCH":2395,"BSTAR":0.000083059,"MEAN_MOTION_DOT":-8.5e-7,"MEAN_MOTION_DDOT":0},{"OBJECT_NAME":"HULIANWANG DIGUI-153","OBJECT_ID":"2026-013H","EPOCH":"2026-07-16T11:53:43.510272","CLASSIFICATION_TYPE":"U","MEAN_MOTION":13.2932384,"ECCENTRICITY":0.000127,"INCLINATION":50.0029,"RA_OF_ASC_NODE":250.2189,"ARG_OF_PERICENTER":226.861,"MEAN_ANOMALY":133.2156,"EPHEMERIS_TYPE":0,"NORAD_CAT_ID":67529,"ELEMENT_SET_NO":999,"REV_AT_EPOCH":2394,"BSTAR":0.000065185,"MEAN_MOTION_DOT":-9.4e-7,"MEAN_MOTION_DDOT":0},{"OBJECT_NAME":"HULIANWANG DIGUI-154","OBJECT_ID":"2026-013J","EPOCH":"2026-07-16T13:29:47.831424","CLASSIFICATION_TYPE":"U","MEAN_MOTION":13.29332319,"ECCENTRICITY":0.0001255,"INCLINATION":50.0052,"RA_OF_ASC_NODE":249.9447,"ARG_OF_PERICENTER":224.8668,"MEAN_ANOMALY":135.2103,"EPHEMERIS_TYPE":0,"NORAD_CAT_ID":67530,"ELEMENT_SET_NO":999,"REV_AT_EPOCH":2395,"BSTAR":0.000065596,"MEAN_MOTION_DOT":-9.4e-7,"MEAN_MOTION_DDOT":0},{"OBJECT_NAME":"HULIANWANG DIGUI-155","OBJECT_ID":"2026-047A","EPOCH":"2026-07-16T07:45:53.030016","CLASSIFICATION_TYPE":"U","MEAN_MOTION":13.29333874,"ECCENTRICITY":0.0000923,"INCLINATION":50.0046,"RA_OF_ASC_NODE":311.8859,"ARG_OF_PERICENTER":205.4166,"MEAN_ANOMALY":154.6661,"EPHEMERIS_TYPE":0,"NORAD_CAT_ID":68129,"ELEMENT_SET_NO":999,"REV_AT_EPOCH":1694,"BSTAR":0.000057034,"MEAN_MOTION_DOT":-9.8e-7,"MEAN_MOTION_DDOT":0}]}
