HULIANWANG DIGUI-140    
1 67438U 26007D   26197.65128562 -.00000115  00000+0  18435-4 0  9995
2 67438  50.0072 340.3662 0000873 121.7895 238.3062 13.29326067 24705
HULIANWANG DIGUI-141    
1 67439U 26007E   26197.76819738 -.00000102  00000+0  48570-4 0  9999
2 67439  50.0067 339.6429 0000864 120.5623 239.5334 13.29326896 24725
HULIANWANG DIGUI-142    
1 67440U 26007F   26197.75987545 -.00000109  00000+0  33521-4 0  9999
2 67440  50.0140 339.7156 0000886 122.7416 237.3541 13.29326601 24725
HULIANWANG DIGUI-143    
1 67441U 26007G   26197.75156778 -.00000112  00000+0  25118-4 0  9993
2 67441  50.0121 339.6437 0000728 123.7214 236.3727 13.29324976 24726
HULIANWANG DIGUI-144    
1 67442U 26007H   26197.81820071 -.00000100  00000+0  51672-4 0  9996
2 67442  50.0107 339.3141 0000875 127.7556 232.3396 13.29329358 24734
HULIANWANG DIGUI-145    
1 67443U 26007J   26197.73486052 -.00000107  00000+0  36660-4 0  9992
2 67443  50.0111 339.5468 0000836 123.7429 236.3523 13.29325874 24720
HULIANWANG DIGUI-146    
1 67522U 26013A   26197.55412209 -.00000091  00000+0  70785-4 0  9998
2 67522  50.0069 250.5825 0001341 222.9311 137.1457 13.29325275 23956
HULIANWANG DIGUI-147    
1 67523U 26013B   26197.54562223 -.00000095  00000+0  63030-4 0  9999
2 67523  50.0039 250.4904 0001253 223.3130 136.7644 13.29328826 23955
HULIANWANG DIGUI-148    
1 67524U 26013C   26197.61241977 -.00000087  00000+0  79868-4 0  9995
2 67524  50.0080 250.2405 0001287 223.3051 136.7721 13.29326799 23969
HULIANWANG DIGUI-149    
1 67525U 26013D   26197.52902359 -.00000118  00000+0  13371-4 0  9996
2 67525  50.0074 250.4586 0001512 225.6042 134.4706 13.29331310 23953
HULIANWANG DIGUI-150    
1 67526U 26013E   26197.58752123 -.00000129  00000+0 -10320-4 0  9999
2 67526  50.0047 250.0436 0001292 223.7494 136.3276 13.29325518 23988
HULIANWANG DIGUI-151    
1 67527U 26013F   26197.52066168 -.00000154  00000+0 -64868-4 0  9995
2 67527  50.0081 250.4230 0001243 226.0539 134.0231 13.29327402 23952
HULIANWANG DIGUI-152    
1 67528U 26013G   26197.50389737 -.00000085  00000+0  83059-4 0  9999
2 67528  50.0025 250.2591 0001262 225.9254 134.1514 13.29332520 23954
HULIANWANG DIGUI-153    
1 67529U 26013H   26197.49564248 -.00000094  00000+0  65185-4 0  9990
2 67529  50.0029 250.2189 0001270 226.8610 133.2156 13.29323840 23943
HULIANWANG DIGUI-154    
1 67530U 26013J   26197.56235916 -.00000094  00000+0  65596-4 0  9993
2 67530  50.0052 249.9447 0001255 224.8668 135.2103 13.29332319 23953
HULIANWANG DIGUI-155    
1 68129U 26047A   26197.32353044 -.00000098  00000+0  57034-4 0  9994
2 68129  50.0046 311.8859 0000923 205.4166 154.6661 13.29333874 16948
